{"fetched_at":"2026-03-29T16:36:15Z","count":15609,"tles":[{"name":"STARLINK-33806","line1":"1 63723U 25087AC  26087.84842689  .00021693  00000+0  74223-3 0  9996","line2":"2 63723  53.1603 130.5069 0001821  89.0524 271.0686 15.30207379 52133","category":"Starlink"}]}