{
  "norad_id": 63723,
  "name": "STARLINK-33806",
  "history": [
    {
      "epoch": "2026-03-28T20:21:44.083296Z",
      "apogee_km": 476.4413712102014,
      "perigee_km": 473.94470307766915,
      "latitude_deg": 4.655255010564038e-05,
      "longitude_deg": -1.1897293250605248,
      "height_km": 476.06971890750356,
      "semi_major_axis_km": 6853.3300371439345,
      "eccentricity": 0.00018215,
      "inclination_deg": 53.1603,
      "raan_deg": 130.5069,
      "arg_perigee_deg": 89.0524,
      "mean_anomaly_deg": 271.0686,
      "mean_motion_rev_day": 15.30207379
    }
  ]
}